NORAD_CAT_ID,OBJECT_NAME,OBJECT_TYPE,EPOCH,MEAN_MOTION,ECCENTRICITY,INCLINATION,RA_OF_ASC_NODE,ARG_OF_PERICENTER,MEAN_ANOMALY,BSTAR,MEAN_MOTION_DOT,MEAN_MOTION_DDOT,TLE_LINE0,TLE_LINE1,TLE_LINE2,SEMIMAJOR_AXIS,PERIOD,APOGEE,PERIGEE,DECAYED
51731.0,STARLINK-3514,PAYLOAD,2023-03-17 22:47:32,15.08837808,0.0001583,53.2145,162.174,83.5577,276.5595,0.0011133,0.00017474,0.0,0 STARLINK-3514,1 51731U 22016T   23076.94968649  .00017474  00000-0  11133-2 0  9995,2 51731  53.2145 162.1740 0001583  83.5577 276.5595 15.08837808 60465,6917.887,95.438,540.847,538.657,0.0
51731.0,STARLINK-3514,PAYLOAD,2023-03-18 13:06:00,15.08882227,0.0001126,53.2147,159.497,82.8761,277.2359,0.0018268,0.00028939,0.0,0 STARLINK-3514,1 51731U 22016T   23077.54583371  .00028939  00000-0  18268-2 0  9991,2 51731  53.2147 159.4970 0001126  82.8761 277.2359 15.08882227 60552,6917.751,95.435,540.395,538.837,0.0
51731.0,STARLINK-3514,PAYLOAD,2023-03-18 17:52:08,15.08901232,0.0001092,53.2146,158.6054,80.7336,279.3779,0.0022116,0.00035145,0.0,0 STARLINK-3514,1 51731U 22016T   23077.74454612  .00035145  00000-0  22116-2 0  9992,2 51731  53.2146 158.6054 0001092  80.7336 279.3779 15.08901232 59478,6917.693,95.434,540.314,538.803,0.0
51731.0,STARLINK-3514,PAYLOAD,2023-03-18 22:38:18,15.08844551,9.84e-05,53.2152,157.7137,95.0628,265.0477,-0.0011583,-0.00018677,0.0,0 STARLINK-3514,1 51731U 22016T   23077.94326868 -.00018677  00000-0 -11583-2 0  9994,2 51731  53.2152 157.7137 0000984  95.0628 265.0477 15.08844551 60614,6917.866,95.437,540.412,539.051,0.0
51731.0,STARLINK-3514,PAYLOAD,2023-03-19 11:21:23,15.0885276,0.000139,53.2148,155.3352,92.3762,267.7389,0.00152,0.00023994,0.0,0 STARLINK-3514,1 51731U 22016T   23078.47319183  .00023994  00000-0  15200-2 0  9991,2 51731  53.2148 155.3352 0001390  92.3762 267.7389 15.08852760 59589,6917.841,95.437,540.668,538.745,0.0
51731.0,STARLINK-3514,PAYLOAD,2023-03-19 14:32:09,15.0886055,0.0001449,53.2144,154.7404,90.5878,269.528,0.0021456,0.00034044,0.0,0 STARLINK-3514,1 51731U 22016T   23078.60567046  .00034044  00000-0  21456-2 0  9997,2 51731  53.2144 154.7404 0001449  90.5878 269.5280 15.08860550 60712,6917.818,95.436,540.685,538.68,0.0
51731.0,STARLINK-3514,PAYLOAD,2023-03-20 04:50:38,15.08860269,0.0002427,53.2149,152.0645,92.7503,267.3767,0.0015823,0.00024999,0.0,0 STARLINK-3514,1 51731U 22016T   23079.20183326  .00024999  00000-0  15823-2 0  9998,2 51731  53.2149 152.0645 0002427  92.7503 267.3767 15.08860269 60804,6917.818,95.436,541.362,538.004,0.0
51731.0,STARLINK-3514,PAYLOAD,2023-03-20 11:12:10,15.08854146,0.0001694,53.2158,150.8749,103.7161,256.402,0.00067347,0.00010451,0.0,0 STARLINK-3514,1 51731U 22016T   23079.46679027  .00010451  00000-0  67347-3 0  9991,2 51731  53.2158 150.8749 0001694 103.7161 256.4020 15.08854146 60845,6917.837,95.437,540.874,538.53,0.0
51731.0,STARLINK-3514,PAYLOAD,2023-03-20 15:58:19,15.08864533,0.0001735,53.2159,149.9824,104.5553,255.5632,0.0010604,0.0001664,0.0,0 STARLINK-3514,1 51731U 22016T   23079.66550720  .00016640  00000-0  10604-2 0  9990,2 51731  53.2159 149.9824 0001735 104.5553 255.5632 15.08864533 59768,6917.805,95.436,540.871,538.47,0.0
51731.0,STARLINK-3514,PAYLOAD,2023-03-21 07:52:11,15.08840863,0.0001822,53.2145,147.0087,105.6208,254.4985,0.00091326,0.00014277,0.0,0 STARLINK-3514,1 51731U 22016T   23080.32791341  .00014277  00000-0  91326-3 0  9996,2 51731  53.2145 147.0087 0001822 105.6208 254.4985 15.08840863 60973,6917.878,95.438,541.003,538.482,0.0
51731.0,STARLINK-3514,PAYLOAD,2023-03-21 11:02:58,15.08843971,0.0001666,53.2153,146.415,98.7755,261.3426,0.0013432,0.00021156,0.0,0 STARLINK-3514,1 51731U 22016T   23080.46039376  .00021156  00000-0  13432-2 0  9999,2 51731  53.2153 146.4150 0001666  98.7755 261.3426 15.08843971 59889,6917.868,95.437,540.886,538.581,0.0
51731.0,STARLINK-3514,PAYLOAD,2023-03-22 04:32:12,15.08849204,0.0001802,53.2151,143.1429,107.1489,252.97,0.0015249,0.0002407,0.0,0 STARLINK-3514,1 51731U 22016T   23081.18903812  .00024070  00000-0  15249-2 0  9990,2 51731  53.2151 143.1429 0001802 107.1489 252.9700 15.08849204 61105,6917.852,95.437,540.964,538.471,0.0
51731.0,STARLINK-3514,PAYLOAD,2023-03-22 10:53:45,15.08840239,0.0001773,53.2157,141.9522,108.5586,251.5599,0.00083726,0.00013062,0.0,0 STARLINK-3514,1 51731U 22016T   23081.45399887  .00013062  00000-0  83726-3 0  9996,2 51731  53.2157 141.9522 0001773 108.5586 251.5599 15.08840239 61145,6917.88,95.438,540.971,538.518,0.0
51731.0,STARLINK-3514,PAYLOAD,2023-03-22 20:26:04,15.08846128,0.0001431,53.2144,140.1673,99.7565,260.3588,0.00057893,8.939e-05,0.0,0 STARLINK-3514,1 51731U 22016T   23081.85143731  .00008939  00000-0  57893-3 0  9998,2 51731  53.2144 140.1673 0001431  99.7565 260.3588 15.08846128 60090,6917.862,95.437,540.717,538.737,0.0
51731.0,STARLINK-3514,PAYLOAD,2023-03-23 09:09:09,15.08847985,0.000164,53.2147,137.7881,88.2135,271.9045,0.00044382,6.784e-05,0.0,0 STARLINK-3514,1 51731U 22016T   23082.38135537  .00006784  00000-0  44382-3 0  9997,2 51731  53.2147 137.7881 0001640  88.2135 271.9045 15.08847985 61284,6917.856,95.437,540.856,538.586,0.0
51731.0,STARLINK-3514,PAYLOAD,2023-03-23 20:16:50,15.08856655,0.0001551,53.215,135.706,94.8621,265.2548,0.00049114,7.541e-05,0.0,0 STARLINK-3514,1 51731U 22016T   23082.84503118  .00007541  00000-0  49114-3 0  9992,2 51731  53.2150 135.7060 0001551  94.8621 265.2548 15.08856655 60242,6917.829,95.437,540.767,538.622,0.0
51731.0,STARLINK-3514,PAYLOAD,2023-03-24 10:35:17,15.08887687,0.0001689,53.2146,133.034,104.1148,256.0032,0.0012987,0.00020468,0.0,0 STARLINK-3514,1 51731U 22016T   23083.44118048  .00020468  00000-0  12987-2 0  9993,2 51731  53.2146 133.0340 0001689 104.1148 256.0032 15.08887687 61448,6917.735,95.435,540.768,538.431,0.0
51731.0,STARLINK-3514,PAYLOAD,2023-03-24 20:07:37,15.08830638,0.0002013,53.2144,131.247,82.9907,277.1314,-0.00040138,-6.669e-05,0.0,0 STARLINK-3514,1 51731U 22016T   23083.83862891 -.00006669  00000-0 -40138-3 0  9997,2 51731  53.2144 131.2470 0002013  82.9907 277.1314 15.08830638 61506,6917.909,95.438,541.167,538.381,0.0
51731.0,STARLINK-3514,PAYLOAD,2023-03-25 10:26:07,15.08797158,0.0001325,53.2148,128.5734,89.2016,270.9128,-0.00075041,-0.00012197,0.0,0 STARLINK-3514,1 51731U 22016T   23084.43480396 -.00012197  00000-0 -75041-3 0  9994,2 51731  53.2148 128.5734 0001325  89.2016 270.9128 15.08797158 61590,6918.011,95.44,540.793,538.96,0.0
51731.0,STARLINK-3514,PAYLOAD,2023-03-25 19:58:26,15.08801943,0.0001323,53.2149,126.789,82.8782,277.2361,0.00044367,6.773e-05,0.0,0 STARLINK-3514,1 51731U 22016T   23084.83225602  .00006773  00000-0  44367-3 0  9993,2 51731  53.2149 126.7890 0001323  82.8782 277.2361 15.08801943 60542,6917.997,95.44,540.777,538.946,0.0
51731.0,STARLINK-3514,PAYLOAD,2023-03-26 10:16:55,15.08834024,0.0001056,53.2135,124.1112,80.2535,279.8576,0.0014983,0.00023634,0.0,0 STARLINK-3514,1 51731U 22016T   23085.42842355  .00023634  00000-0  14983-2 0  9994,2 51731  53.2135 124.1112 0001056  80.2535 279.8576 15.08834024 61742,6917.899,95.438,540.494,539.033,0.0
51731.0,STARLINK-3514,PAYLOAD,2023-03-26 19:49:15,15.0881509,0.0001138,53.215,122.3291,75.4084,284.7035,0.00093625,0.00014634,0.0,0 STARLINK-3514,1 51731U 22016T   23085.82587373  .00014634  00000-0  93625-3 0  9995,2 51731  53.2150 122.3291 0001138  75.4084 284.7035 15.08815090 61807,6917.957,95.439,540.609,539.034,0.0
51731.0,STARLINK-3514,PAYLOAD,2023-03-27 02:10:47,15.08842591,0.0001058,53.2151,121.1396,67.7733,292.3371,0.0015237,0.00024047,0.0,0 STARLINK-3514,1 51731U 22016T   23086.09083246  .00024047  00000-0  15237-2 0  9996,2 51731  53.2151 121.1396 0001058  67.7733 292.3371 15.08842591 61845,6917.872,95.437,540.469,539.006,0.0
51731.0,STARLINK-3514,PAYLOAD,2023-03-27 08:32:20,15.08870995,0.0001255,53.2144,119.9488,71.2938,288.819,0.002686,0.00042756,0.0,0 STARLINK-3514,1 51731U 22016T   23086.35578898  .00042756  00000-0  26860-2 0  9998,2 51731  53.2144 119.9488 0001255  71.2938 288.8190 15.08870995 61882,6917.786,95.436,540.519,538.782,0.0
51731.0,STARLINK-3514,PAYLOAD,2023-03-27 13:18:29,15.08875816,0.0001259,53.2142,119.0564,73.7197,286.3934,0.0017987,0.00028482,0.0,0 STARLINK-3514,1 51731U 22016T   23086.55450485  .00028482  00000-0  17987-2 0  9991,2 51731  53.2142 119.0564 0001259  73.7197 286.3934 15.08875816 60801,6917.771,95.435,540.507,538.765,0.0
51731.0,STARLINK-3514,PAYLOAD,2023-03-28 05:12:19,15.0887559,0.0001526,53.215,116.0834,79.4079,280.7085,0.00072,0.000112,0.0,0 STARLINK-3514,1 51731U 22016T   23087.21689238  .00011200  00000-0  72000-3 0  9993,2 51731  53.2150 116.0834 0001526  79.4079 280.7085 15.08875590 62015,6917.772,95.435,540.692,538.581,0.0
51731.0,STARLINK-3514,PAYLOAD,2023-03-28 08:23:05,15.08879114,0.0001601,53.2146,115.4871,81.3384,278.7789,0.00060796,9.411e-05,0.0,0 STARLINK-3514,1 51731U 22016T   23087.34936858  .00009411  00000-0  60796-3 0  9990,2 51731  53.2146 115.4871 0001601  81.3384 278.7789 15.08879114 60921,6917.761,95.435,540.733,538.518,0.0
51731.0,STARLINK-3514,PAYLOAD,2023-03-29 06:38:28,15.08865186,0.000166,53.2144,111.3231,115.7636,244.3527,0.00018903,2.724e-05,0.0,0 STARLINK-3514,1 51731U 22016T   23088.27671747  .00002724  00000-0  18903-3 0  9999,2 51731  53.2144 111.3231 0001660 115.7636 244.3527 15.08865186 62173,6917.803,95.436,540.817,538.52,0.0
51731.0,STARLINK-3514,PAYLOAD,2023-03-29 11:24:37,15.08859452,0.0001525,53.215,110.4308,111.8835,248.232,3.2173e-05,2.24e-06,0.0,0 STARLINK-3514,1 51731U 22016T   23088.47543706  .00000224  00000-0  32173-4 0  9993,2 51731  53.2150 110.4308 0001525 111.8835 248.2320 15.08859452 61096,6917.821,95.436,540.741,538.631,0.0
51731.0,STARLINK-3514,PAYLOAD,2023-03-29 13:00:00,15.08861258,0.0001386,53.215,110.1338,102.0878,258.0269,7.1265e-05,8.47e-06,0.0,0 STARLINK-3514,1 51731U 22016T   23088.54167680  .00000847  00000-0  71265-4 0  9990,2 51731  53.2150 110.1338 0001386 102.0878 258.0269 15.08861258 62213,6917.815,95.436,540.639,538.722,0.0
